Satellite: XATCOBEO
Catalog number: 38082
Epoch time:      14243.34478676
Element set:     999
Inclination:      069.3815 deg
RA of node:       097.0364 deg
Eccentricity:    0.0033293
Arg of perigee:   225.1799 deg
Mean anomaly:     135.4582 deg
Mean motion:   16.41261006 rev/day
Decay rate:  1.3583328e-01 rev/day^2
Epoch rev:           13623
Checksum:              330

Satellite: CUBEBUG-1
Catalog number: 39153
Epoch time:      15050.16542453
Element set:     999
Inclination:      098.0225 deg
RA of node:       134.8826 deg
Eccentricity:    0.0016219
Arg of perigee:   274.1015 deg
Mean anomaly:     085.8342 deg
Mean motion:   14.78775591 rev/day
Decay rate:      1.531e-05 rev/day^2
Epoch rev:            9803
Checksum:              310

Satellite: ESTCUBE-1
Catalog number: 39161
Epoch time:      15050.32021280
Element set:     999
Inclination:      098.0778 deg
RA of node:       134.2791 deg
Eccentricity:    0.0009353
Arg of perigee:   336.3737 deg
Mean anomaly:     023.7039 deg
Mean motion:   14.70816950 rev/day
Decay rate:      1.453e-05 rev/day^2
Epoch rev:            9591
Checksum:              306

Satellite: DUCHIFAT-1
Catalog number: 40021
Epoch time:      15050.39960150
Element set:     999
Inclination:      097.9637 deg
RA of node:       310.6327 deg
Eccentricity:    0.0013180
Arg of perigee:   206.8653 deg
Mean anomaly:     153.1879 deg
Mean motion:   14.87177624 rev/day
Decay rate:      3.523e-05 rev/day^2
Epoch rev:            3629
Checksum:              308

Satellite: NANOSATCBR1
Catalog number: 40024
Epoch time:      15050.29345159
Element set:     999
Inclination:      097.9620 deg
RA of node:       310.4068 deg
Eccentricity:    0.0012054
Arg of perigee:   206.1108 deg
Mean anomaly:     153.9520 deg
Mean motion:   14.86871434 rev/day
Decay rate:      3.185e-05 rev/day^2
Epoch rev:            3627
Checksum:              286

Satellite: DTUSAT-2
Catalog number: 40030
Epoch time:      15050.30894409
Element set:     999
Inclination:      097.9615 deg
RA of node:       310.2014 deg
Eccentricity:    0.0012036
Arg of perigee:   198.6104 deg
Mean anomaly:     161.4665 deg
Mean motion:   14.86177441 rev/day
Decay rate:      2.635e-05 rev/day^2
Epoch rev:            3627
Checksum:              288

Satellite: ANTELSAT
Catalog number: 40034
Epoch time:      15050.41705627
Element set:     999
Inclination:      097.9589 deg
RA of node:       304.9951 deg
Eccentricity:    0.0061119
Arg of perigee:   136.0175 deg
Mean anomaly:     224.5899 deg
Mean motion:   14.72258763 rev/day
Decay rate:      1.762e-05 rev/day^2
Epoch rev:            3596
Checksum:              331

/EX
SB KEPS @ AMSAT  $ORB15050.W
Orbital Elements  15050.WEATHER

HR AMSAT ORBITAL ELEMENTS FOR WEATHER SATELLITES
FROM WA5QGD FORT WORTH,TX February 19, 2015
BID: ORB15050.W
TO ALL RADIO AMATEURS BT

Satellite: MET-2/21
Catalog number: 22782
Epoch time:      15049.93027312
Element set:     999
Inclination:      082.5527 deg
RA of node:       337.5130 deg
Eccentricity:    0.0021017
Arg of perigee:   293.9925 deg
Mean anomaly:     134.5104 deg
Mean motion:   13.83762804 rev/day
Decay rate:       1.10e-06 rev/day^2
Epoch rev:            8424
Checksum:              290

Satellite: OKEAN-4
Catalog number: 23317
Epoch time:      15049.90066253
Element set:     999
Inclination:      082.5394 deg
RA of node:       196.4954 deg
Eccentricity:    0.0019891
Arg of perigee:   005.5193 deg
Mean anomaly:     108.5890 deg
Mean motion:   14.86335713 rev/day
Decay rate:      1.470e-05 rev/day^2
Epoch rev:            9974
Checksum:              339

Satellite: NOAA-14
Catalog number: 23455
Epoch time:      15050.46673078
Element set:     999
Inclination:      098.7580 deg
RA of node:       134.3137 deg
Eccentricity:    0.0010189
Arg of perigee:   060.7737 deg
Mean anomaly:     067.5248 deg
Mean motion:   14.14023768 rev/day
Decay rate:       -9.0e-08 rev/day^2
Epoch rev:            3889
Checksum:              329

Satellite: NOAA-15
Catalog number: 25338
Epoch time:      15050.87665554
Element set:     999
Inclination:      098.7687 deg
RA of node:       049.4648 deg
Eccentricity:    0.0011155
Arg of perigee:   144.2567 deg
Mean anomaly:     215.9833 deg
Mean motion:   14.25567980 rev/day
Decay rate:       2.57e-06 rev/day^2
Epoch rev:           87213
Checksum:              356

Satellite: RESURS
Catalog number: 25394
Epoch time:      15049.92405491
Element set:     999
Inclination:      098.4510 deg
RA of node:       009.3690 deg
Eccentricity:    0.0000473
Arg of perigee:   205.3999 deg
Mean anomaly:     223.7443 deg
Mean motion:   14.24442244 rev/day
Decay rate:        4.6e-07 rev/day^2
Epoch rev:           86344
Checksum:              309

Satellite: FENGYUN1
Catalog number: 25730
Epoch time:      15049.52998781
Element set:     999
Inclination:      098.9347 deg
RA of node:       014.5229 deg
Eccentricity:    0.0020104
Arg of perigee:   125.6636 deg
Mean anomaly:     011.0979 deg
Mean motion:   14.13003202 rev/day
Decay rate:       9.92e-06 rev/day^2
Epoch rev:           81229
Checksum:              306

Satellite: OKEAN-0
Catalog number: 25860
Epoch time:      15050.36791508
Element set:     999
Inclination:      098.0803 deg
RA of node:       018.3416 deg
Eccentricity:    0.0001241
Arg of perigee:   083.2964 deg
Mean anomaly:     036.4062 deg
Mean motion:   14.75822442 rev/day
Decay rate:       8.00e-06 rev/day^2
Epoch rev:           83860
Checksum:              292

Satellite: NOAA-16
Catalog number: 26536
Epoch time:      15050.83959374
Element set:     999
Inclination:      098.9571 deg
RA of node:       116.8581 deg
Eccentricity:    0.0010193
Arg of perigee:   199.4814 deg
Mean anomaly:     160.6455 deg
Mean motion:   14.13076852 rev/day
Decay rate:       1.05e-06 rev/day^2
Epoch rev:           74308
Checksum:              336

Satellite: NOAA-17
Catalog number: 27453
Epoch time:      15050.52751883
Element set:     999
Inclination:      098.3321 deg
RA of node:       042.4082 deg
Eccentricity:    0.0012295
Arg of perigee:   163.3264 deg
Mean anomaly:     196.8323 deg
Mean motion:   14.24853962 rev/day
Decay rate:        8.1e-07 rev/day^2
Epoch rev:           65790
Checksum:              319

Satellite: NOAA-18
Catalog number: 28654
Epoch time:      15050.54054435
Element set:     999
Inclination:      099.1770 deg
RA of node:       040.3666 deg
Eccentricity:    0.0013321
Arg of perigee:   291.3949 deg
Mean anomaly:     174.7625 deg
Mean motion:   14.12151258 rev/day
Decay rate:       1.90e-06 rev/day^2
Epoch rev:           50247
Checksum:              307

Satellite: NOAA-19
Catalog number: 33591
Epoch time:      15050.55339067
Element set:     999
Inclination:      098.9774 deg
RA of node:       000.2395 deg
Eccentricity:    0.0014816
Arg of perigee:   139.0754 deg
Mean anomaly:     339.2912 deg
Mean motion:   14.11875641 rev/day
Decay rate:       2.92e-06 rev/day^2
Epoch rev:           31089
Checksum:              330

/EX
SB KEPS @ AMSAT  $ORB15050.M
Orbital Elements  15050.MISC

HR AMSAT ORBITAL ELEMENTS FOR MANNED AND MISCELLANEOUS SATELLITES
FROM WA5QGD FORT WORTH,TX February 19, 2015
BID: ORB15050.M
TO ALL RADIO AMATEURS BT

Satellite: HUBBLE
Catalog number: 20580
Epoch time:      15049.91929047
Element set:     999
Inclination:      028.4690 deg
RA of node:       213.6934 deg
Eccentricity:    0.0003336
Arg of perigee:   049.8834 deg
Mean anomaly:     084.4844 deg
Mean motion:   15.06845648 rev/day
Decay rate:      2.473e-05 rev/day^2
Epoch rev:           16195
Checksum:              335

Satellite: ISS
Catalog number: 25544
Epoch time:      15050.77564126
Element set:     999
Inclination:      051.6484 deg
RA of node:       310.4179 deg
Eccentricity:    0.0005775
Arg of perigee:   026.7201 deg
Mean anomaly:     077.4815 deg
Mean motion:   15.55028906 rev/day
Decay rate:     2.2657e-04 rev/day^2
Epoch rev:           92976
Checksum:              326

Satellite: CO-58
Catalog number: 28895
Epoch time:      15049.77601986
Element set:     999
Inclination:      097.8224 deg
RA of node:       243.7392 deg
Eccentricity:    0.0016069
Arg of perigee:   313.8375 deg
Mean anomaly:     046.1498 deg
Mean motion:   14.62512604 rev/day
Decay rate:       9.81e-06 rev/day^2
Epoch rev:           49628
Checksum:              369

Satellite: FALCON
Catalog number: 30776
Epoch time:      15049.35292032
Element set:     999
Inclination:      035.4296 deg
RA of node:       024.5966 deg
Eccentricity:    0.0003809
Arg of perigee:   278.6890 deg
Mean anomaly:     206.7924 deg
Mean motion:   15.21594113 rev/day
Decay rate:     1.4212e-04 rev/day^2
Epoch rev:           43817
Checksum:              318

Satellite: MAST
Catalog number: 31126
Epoch time:      15049.93027453
Element set:     999
Inclination:      097.9473 deg
RA of node:       023.4473 deg
Eccentricity:    0.0089937
Arg of perigee:   305.1295 deg
Mean anomaly:     115.6422 deg
Mean motion:   14.55835838 rev/day
Decay rate:       9.38e-06 rev/day^2
Epoch rev:           41628
Checksum:              336

Satellite: CAPE1
Catalog number: 31130
Epoch time:      15049.85956842
Element set:     999
Inclination:      097.9690 deg
RA of node:       020.3807 deg
Eccentricity:    0.0096739
Arg of perigee:   324.8684 deg
Mean anomaly:     034.6159 deg
Mean motion:   14.55194802 rev/day
Decay rate:      1.414e-05 rev/day^2
Epoch rev:           41567
Checksum:              339

